KUIPER-00071            
1 64818U 25151C   25307.91558604  .00014064  00000+0  18691-2 0  9997
2 64818  51.8986 139.2467 0007932 163.8888 196.2328 14.79938372 16642
KUIPER-00072            
1 64819U 25151D   25308.33336806 -.00035191  00000+0 -35506-2 0  9993
2 64819  51.9264 117.7217 0003167 168.4036 156.5124 14.90617441  5835
KUIPER-00073            
1 64820U 25151E   25308.21891030  .00003216  00000+0  44945-3 0  9996
2 64820  51.8975 137.8984 0013473 193.2753 166.7856 14.80025430 17874
KUIPER-00074            
1 64821U 25151F   25308.23281030  .00003073  00000+0  43154-3 0  9994
2 64821  51.8990 125.3514 0012467 208.6080 151.4199 14.79953237 16861
KUIPER-00075            
1 64822U 25151G   25308.16067845  .00081818  00000+0  20188-2 0  9997
2 64822  51.8730 111.4011 0005455 173.8344 186.2712 15.39801107 17051
KUIPER-00076            
1 64823U 25151H   25308.23020344  .00003467  00000+0  48364-3 0  9990
2 64823  51.8990 127.8622 0004034 201.1306 158.9490 14.79930293 16830
KUIPER-00077            
1 64824U 25151J   25308.22487133  .00002826  00000+0  39966-3 0  9999
2 64824  51.8992 132.8871 0006481 155.5011 204.6261 14.79933520 16761
KUIPER-00078            
1 64825U 25151K   25307.92361454  .00022560  00000+0  29728-2 0  9994
2 64825  51.8986 131.7181 0007209 221.6591 138.3823 14.79998335 16755
